GPS BIIA-23 (PRN 18)    
1 22877U 93068A   18192.47220171 -.00000043  00000-0  00000+0 0  9994
2 22877  54.4414  82.5074 0145531  75.5229 218.8276  2.00567024181038
GPS BIIR-2  (PRN 13)    
1 24876U 97035A   18192.45712883  .00000097  00000-0  00000+0 0  9995
2 24876  55.4871 211.8149 0030638  87.8913 272.5214  2.00564703153639
GPS BIIR-3  (PRN 11)    
1 25933U 99055A   18192.46094994 -.00000052  00000-0  00000+0 0  9993
2 25933  51.9041  60.6322 0167601 102.2534 186.6974  2.00566532137451
GPS BIIR-4  (PRN 20)    
1 26360U 00025A   18192.33364331  .00000001  00000-0  00000+0 0  9991
2 26360  53.2090 138.6605 0037871 118.8351 125.4015  2.00563657133144
GPS BIIR-5  (PRN 28)    
1 26407U 00040A   18192.53706647 -.00000065  00000-0  00000+0 0  9993
2 26407  56.4678 329.9440 0196877 272.8989  96.7032  2.00562819131826
GPS BIIR-6  (PRN 14)    
1 26605U 00071A   18192.35311356  .00000097  00000-0  00000+0 0  9990
2 26605  55.0605 209.4010 0102489 248.9206 253.0872  2.00571587129412
GPS BIIR-8  (PRN 16)    
1 27663U 03005A   18191.35953243 -.00000063  00000-0  00000+0 0  9995
2 27663  56.5325 329.7488 0098811  28.8491 330.4770  2.00565484113162
GPS BIIR-9  (PRN 21)    
1 27704U 03010A   18192.33381687 -.00000044  00000-0  00000+0 0  9992
2 27704  54.1122  82.0914 0245790 271.5424  30.4974  2.00563407111987
GPS BIIR-10 (PRN 22)    
1 28129U 03058A   18192.15169342  .00000007  00000-0  00000+0 0  9996
2 28129  53.0221 141.5180 0075214 273.2665  85.8371  2.00551765106670
GPS BIIR-11 (PRN 19)    
1 28190U 04009A   18192.45689590 -.00000048  00000-0  00000+0 0  9992
2 28190  56.1814  30.5459 0096476  69.9370 148.6993  2.00558637104853
GPS BIIR-12 (PRN 23)    
1 28361U 04023A   18192.48381155  .00000091  00000-0  00000+0 0  9994
2 28361  54.0620 204.1115 0128008 226.3890 288.4983  2.00552036102943
GPS BIIR-13 (PRN 02)    
1 28474U 04045A   18192.12900542 -.00000044  00000-0  00000+0 0  9990
2 28474  54.4799  81.7228 0181365 254.4860   3.6706  2.00551954100303
GPS BIIRM-1 (PRN 17)    
1 28874U 05038A   18191.87251755 -.00000047  00000-0  00000+0 0  9996
2 28874  56.3214  27.8821 0125960 258.3720 281.4585  2.00574533 93701
GPS BIIRM-2 (PRN 31)    
1 29486U 06042A   18192.39009323  .00000025  00000-0  00000+0 0  9997
2 29486  55.1653 266.6997 0087901 351.2863 126.6463  2.00561116 86424
GPS BIIRM-3 (PRN 12)    
1 29601U 06052A   18191.17212707 -.00000062  00000-0  00000-0 0  9997
2 29601  56.5086 328.6728 0069558  56.4572 304.2030  2.00577064 85262
GPS BIIRM-4 (PRN 15)    
1 32260U 07047A   18191.99293762  .00000093  00000-0  00000+0 0  9999
2 32260  53.1865 200.1320 0102178  38.2583 322.5028  2.00551404 78715
GPS BIIRM-5 (PRN 29)    
1 32384U 07062A   18192.26879264 -.00000048  00000-0  00000+0 0  9992
2 32384  56.3962  28.4775 0006120  73.6429 261.1945  2.00564814 77446
GPS BIIRM-6 (PRN 07)    
1 32711U 08012A   18191.90227974  .00000025  00000-0  00000+0 0  9991
2 32711  54.8999 265.9922 0120159 216.7930 142.4535  2.00565803 75624
GPS BIIRM-8 (PRN 05)    
1 35752U 09043A   18192.08900727  .00000013  00000-0  00000+0 0  9995
2 35752  54.3265 143.7425 0053435  34.1363 129.9531  2.00555412 65213
GPS BIIF-1  (PRN 25)    
1 36585U 10022A   18192.46362764 -.00000063  00000-0  00000+0 0  9990
2 36585  55.7977 325.1668 0072952  48.7228 129.5903  2.00569755 59468
GPS BIIF-2  (PRN 01)    
1 37753U 11036A   18192.29061899 -.00000041  00000-0  00000+0 0  9996
2 37753  55.6791  85.2720 0078379  36.3395 103.3192  2.00564351 51143
GPS BIIF-3  (PRN 24)    
1 38833U 12053A   18191.58424747  .00000030  00000-0  00000+0 0  9999
2 38833  53.9304 262.5391 0068773  29.2327 331.2292  2.00567124 42202
GPS BIIF-4  (PRN 27)    
1 39166U 13023A   18192.43990602 -.00000051  00000-0  00000+0 0  9994
2 39166  56.0181  24.7481 0059120  23.6638 336.6573  2.00562301 37753
GPS BIIF-5  (PRN 30)    
1 39533U 14008A   18190.94404747  .00000015  00000-0  00000+0 0  9999
2 39533  54.0744 267.9187 0035917 189.9571 170.0410  2.00558135 32089
GPS BIIF-6  (PRN 06)    
1 39741U 14026A   18191.72055185 -.00000043  00000-0  00000-0 0  9998
2 39741  55.6621  84.8176 0012761 294.9390  64.9715  2.00565396 30403
GPS BIIF-7  (PRN 09)    
1 40105U 14045A   18192.31028773  .00000095  00000-0  00000+0 0  9999
2 40105  54.5880 204.2362 0006728 110.8538 249.2657  2.00573287 28841
GPS BIIF-8  (PRN 03)    
1 40294U 14068A   18192.18397396  .00000015  00000-0  00000+0 0  9990
2 40294  55.0777 145.0242 0014355  19.5492 340.4685  2.00557673 27068
GPS BIIF-9  (PRN 26)    
1 40534U 15013A   18191.81996613 -.00000064  00000-0  00000+0 0  9999
2 40534  54.7383 323.8892 0027701   1.8522 358.1566  2.00562119 24127
GPS BIIF-10  (PRN 08)   
1 40730U 15033A   18191.98290155 -.00000051  00000-0  00000+0 0  9991
2 40730  55.5479  24.2614 0035536 333.4836  26.3844  2.00573192 21887
GPS BIIF-11  (PRN 10)   
1 41019U 15062A   18189.54024829  .00000040  00000-0  00000+0 0  9993
2 41019  55.0820 144.9329 0037120 205.5629 154.2293  2.00564402 19651
GPS BIIF-12  (PRN 32)   
1 41328U 16007A   18192.12087277  .00000097  00000-0  00000+0 0  9992
2 41328  54.8381 204.5406 0024020 219.6985 140.1744  2.00562238 17768
